STARLINK-36092          
1 66869U 25281X   25362.58335648  .00003372  00000+0  63337-4 0  9993
2 66869  43.0005  26.9073 0001288 277.0948 287.5792 15.50553412  3961
STARLINK-36114          
1 66870U 25281Y   25362.58335648  .00012395  00000+0  21698-3 0  9993
2 66870  43.0004  26.9017 0001141 284.7148 281.8781 15.50551110  3839
STARLINK-36095          
1 66871U 25281Z   25362.58335648  .00011116  00000+0  19521-3 0  9996
2 66871  43.0005  26.8965 0000983 288.2847 280.2231 15.50552129  3968
STARLINK-36082          
1 66872U 25281AA  25362.58335648  .00017093  00000+0  29686-3 0  9990
2 66872  43.0005  26.8916 0001286 285.7341 284.6908 15.50548510  3837
STARLINK-36128          
1 66873U 25281AB  25362.58335648  .00012355  00000+0  21630-3 0  9998
2 66873  43.0004  26.8765 0001161 281.1012 295.0736 15.50552149  3968
STARLINK-36129          
1 66874U 25281AC  25362.58335648 -.00034349  00000+0 -58276-3 0  9994
2 66874  43.0006  26.8868 0001118 275.5889 296.8047 15.50554682  3964
STARLINK-36053          
1 66875U 25281AD  25362.58335648  .00011486  00000+0  20153-3 0  9993
2 66875  43.0005  26.8710 0001183 281.4750 296.6204 15.50550999  3965
STARLINK-35702          
1 66876U 25281AE  25362.58335648 -.00004823  00000+0 -76506-4 0  9997
2 66876  43.0005  26.8818 0001148 279.9624 294.2981 15.50557788  3967
ZQ-3 R/B                
1 66877U 25282A   25362.26315973  .01047609  80498-5  16749-3 0  9998
2 66877  56.9489 356.8194 0648505 247.5169 105.5986 14.91153593  3687
STARLINK-35866          
1 66878U 25283A   25362.58335648  .00054488  00000+0  98132-3 0  9999
2 66878  53.1598 355.3986 0002179  83.3704 294.3388 15.49296706  4977
STARLINK-35749          
1 66879U 25283B   25362.58335648 -.00078880  00000+0 -14233-2 0  9993
2 66879  53.1595 355.3902 0001422  80.9075 300.7601 15.49332461  4976
STARLINK-35844          
1 66880U 25283C   25362.58335648 -.00030502  00000+0 -54210-3 0  9994
2 66880  53.1598 355.3947 0001985  84.7731 294.9356 15.49327314  4977
