CCSDS_OMM_VERS = 2.0
CREATION_DATE  = 
ORIGINATOR     = 

OBJECT_NAME    = STARLINK-36092
OBJECT_ID      = 2025-281X
CENTER_NAME    = EARTH
REF_FRAME      = TEME
TIME_SYSTEM    = UTC
MEAN_ELEMENT_THEORY = SGP/SGP4

EPOCH          = 2025-12-28T14:00:01.999872
MEAN_MOTION    = 15.50553412
ECCENTRICITY   = .00012883
INCLINATION    = 43.0005
RA_OF_ASC_NODE = 26.9073
ARG_OF_PERICENTER = 277.0948
MEAN_ANOMALY   = 287.5792

EPHEMERIS_TYPE = 0
CLASSIFICATION_TYPE = U
NORAD_CAT_ID   = 66869
ELEMENT_SET_NO = 999
REV_AT_EPOCH   = 396
BSTAR          = .63336916E-4
MEAN_MOTION_DOT = .3372E-4
MEAN_MOTION_DDOT = 0

CCSDS_OMM_VERS = 2.0
CREATION_DATE  = 
ORIGINATOR     = 

OBJECT_NAME    = STARLINK-36114
OBJECT_ID      = 2025-281Y
CENTER_NAME    = EARTH
REF_FRAME      = TEME
TIME_SYSTEM    = UTC
MEAN_ELEMENT_THEORY = SGP/SGP4

EPOCH          = 2025-12-28T14:00:01.999872
MEAN_MOTION    = 15.50551110
ECCENTRICITY   = .00011419
INCLINATION    = 43.0004
RA_OF_ASC_NODE = 26.9017
ARG_OF_PERICENTER = 284.7148
MEAN_ANOMALY   = 281.8781

EPHEMERIS_TYPE = 0
CLASSIFICATION_TYPE = U
NORAD_CAT_ID   = 66870
ELEMENT_SET_NO = 999
REV_AT_EPOCH   = 383
BSTAR          = .21697652E-3
MEAN_MOTION_DOT = .12395E-3
MEAN_MOTION_DDOT = 0

CCSDS_OMM_VERS = 2.0
CREATION_DATE  = 
ORIGINATOR     = 

OBJECT_NAME    = STARLINK-36095
OBJECT_ID      = 2025-281Z
CENTER_NAME    = EARTH
REF_FRAME      = TEME
TIME_SYSTEM    = UTC
MEAN_ELEMENT_THEORY = SGP/SGP4

EPOCH          = 2025-12-28T14:00:01.999872
MEAN_MOTION    = 15.50552129
ECCENTRICITY   = .00009832
INCLINATION    = 43.0005
RA_OF_ASC_NODE = 26.8965
ARG_OF_PERICENTER = 288.2847
MEAN_ANOMALY   = 280.2231

EPHEMERIS_TYPE = 0
CLASSIFICATION_TYPE = U
NORAD_CAT_ID   = 66871
ELEMENT_SET_NO = 999
REV_AT_EPOCH   = 396
BSTAR          = .19521162E-3
MEAN_MOTION_DOT = .11116E-3
MEAN_MOTION_DDOT = 0

CCSDS_OMM_VERS = 2.0
CREATION_DATE  = 
ORIGINATOR     = 

OBJECT_NAME    = STARLINK-36082
OBJECT_ID      = 2025-281AA
CENTER_NAME    = EARTH
REF_FRAME      = TEME
TIME_SYSTEM    = UTC
MEAN_ELEMENT_THEORY = SGP/SGP4

EPOCH          = 2025-12-28T14:00:01.999872
MEAN_MOTION    = 15.50548510
ECCENTRICITY   = .00012861
INCLINATION    = 43.0005
RA_OF_ASC_NODE = 26.8916
ARG_OF_PERICENTER = 285.7341
MEAN_ANOMALY   = 284.6908

EPHEMERIS_TYPE = 0
CLASSIFICATION_TYPE = U
NORAD_CAT_ID   = 66872
ELEMENT_SET_NO = 999
REV_AT_EPOCH   = 383
BSTAR          = .29686061E-3
MEAN_MOTION_DOT = .17093E-3
MEAN_MOTION_DDOT = 0

CCSDS_OMM_VERS = 2.0
CREATION_DATE  = 
ORIGINATOR     = 

OBJECT_NAME    = STARLINK-36128
OBJECT_ID      = 2025-281AB
CENTER_NAME    = EARTH
REF_FRAME      = TEME
TIME_SYSTEM    = UTC
MEAN_ELEMENT_THEORY = SGP/SGP4

EPOCH          = 2025-12-28T14:00:01.999872
MEAN_MOTION    = 15.50552149
ECCENTRICITY   = .00011615
INCLINATION    = 43.0004
RA_OF_ASC_NODE = 26.8765
ARG_OF_PERICENTER = 281.1012
MEAN_ANOMALY   = 295.0736

EPHEMERIS_TYPE = 0
CLASSIFICATION_TYPE = U
NORAD_CAT_ID   = 66873
ELEMENT_SET_NO = 999
REV_AT_EPOCH   = 396
BSTAR          = .21629564E-3
MEAN_MOTION_DOT = .12355E-3
MEAN_MOTION_DDOT = 0

CCSDS_OMM_VERS = 2.0
CREATION_DATE  = 
ORIGINATOR     = 

OBJECT_NAME    = STARLINK-36129
OBJECT_ID      = 2025-281AC
CENTER_NAME    = EARTH
REF_FRAME      = TEME
TIME_SYSTEM    = UTC
MEAN_ELEMENT_THEORY = SGP/SGP4

EPOCH          = 2025-12-28T14:00:01.999872
MEAN_MOTION    = 15.50554682
ECCENTRICITY   = .00011188
INCLINATION    = 43.0006
RA_OF_ASC_NODE = 26.8868
ARG_OF_PERICENTER = 275.5889
MEAN_ANOMALY   = 296.8047

EPHEMERIS_TYPE = 0
CLASSIFICATION_TYPE = U
NORAD_CAT_ID   = 66874
ELEMENT_SET_NO = 999
REV_AT_EPOCH   = 396
BSTAR          = -.58275822E-3
MEAN_MOTION_DOT = -.34349E-3
MEAN_MOTION_DDOT = 0

CCSDS_OMM_VERS = 2.0
CREATION_DATE  = 
ORIGINATOR     = 

OBJECT_NAME    = STARLINK-36053
OBJECT_ID      = 2025-281AD
CENTER_NAME    = EARTH
REF_FRAME      = TEME
TIME_SYSTEM    = UTC
MEAN_ELEMENT_THEORY = SGP/SGP4

EPOCH          = 2025-12-28T14:00:01.999872
MEAN_MOTION    = 15.50550999
ECCENTRICITY   = .00011831
INCLINATION    = 43.0005
RA_OF_ASC_NODE = 26.8710
ARG_OF_PERICENTER = 281.4750
MEAN_ANOMALY   = 296.6204

EPHEMERIS_TYPE = 0
CLASSIFICATION_TYPE = U
NORAD_CAT_ID   = 66875
ELEMENT_SET_NO = 999
REV_AT_EPOCH   = 396
BSTAR          = .20152579E-3
MEAN_MOTION_DOT = .11486E-3
MEAN_MOTION_DDOT = 0

CCSDS_OMM_VERS = 2.0
CREATION_DATE  = 
ORIGINATOR     = 

OBJECT_NAME    = STARLINK-35702
OBJECT_ID      = 2025-281AE
CENTER_NAME    = EARTH
REF_FRAME      = TEME
TIME_SYSTEM    = UTC
MEAN_ELEMENT_THEORY = SGP/SGP4

EPOCH          = 2025-12-28T14:00:01.999872
MEAN_MOTION    = 15.50557788
ECCENTRICITY   = .00011488
INCLINATION    = 43.0005
RA_OF_ASC_NODE = 26.8818
ARG_OF_PERICENTER = 279.9624
MEAN_ANOMALY   = 294.2981

EPHEMERIS_TYPE = 0
CLASSIFICATION_TYPE = U
NORAD_CAT_ID   = 66876
ELEMENT_SET_NO = 999
REV_AT_EPOCH   = 396
BSTAR          = -.76506498E-4
MEAN_MOTION_DOT = -.4823E-4
MEAN_MOTION_DDOT = 0

CCSDS_OMM_VERS = 2.0
CREATION_DATE  = 
ORIGINATOR     = 

OBJECT_NAME    = ZQ-3 R/B
OBJECT_ID      = 2025-282A
CENTER_NAME    = EARTH
REF_FRAME      = TEME
TIME_SYSTEM    = UTC
MEAN_ELEMENT_THEORY = SGP/SGP4

EPOCH          = 2025-12-28T06:18:57.000672
MEAN_MOTION    = 14.91153593
ECCENTRICITY   = .06485056
INCLINATION    = 56.9489
RA_OF_ASC_NODE = 356.8194
ARG_OF_PERICENTER = 247.5169
MEAN_ANOMALY   = 105.5986

EPHEMERIS_TYPE = 0
CLASSIFICATION_TYPE = U
NORAD_CAT_ID   = 66877
ELEMENT_SET_NO = 999
REV_AT_EPOCH   = 368
BSTAR          = .16748733E-3
MEAN_MOTION_DOT = .1047609E-1
MEAN_MOTION_DDOT = .8049764E-5

CCSDS_OMM_VERS = 2.0
CREATION_DATE  = 
ORIGINATOR     = 

OBJECT_NAME    = STARLINK-35866
OBJECT_ID      = 2025-283A
CENTER_NAME    = EARTH
REF_FRAME      = TEME
TIME_SYSTEM    = UTC
MEAN_ELEMENT_THEORY = SGP/SGP4

EPOCH          = 2025-12-28T14:00:01.999872
MEAN_MOTION    = 15.49296706
ECCENTRICITY   = .00021796
INCLINATION    = 53.1598
RA_OF_ASC_NODE = 355.3986
ARG_OF_PERICENTER = 83.3704
MEAN_ANOMALY   = 294.3388

EPHEMERIS_TYPE = 0
CLASSIFICATION_TYPE = U
NORAD_CAT_ID   = 66878
ELEMENT_SET_NO = 999
REV_AT_EPOCH   = 497
BSTAR          = .98131764E-3
MEAN_MOTION_DOT = .54488E-3
MEAN_MOTION_DDOT = 0

CCSDS_OMM_VERS = 2.0
CREATION_DATE  = 
ORIGINATOR     = 

OBJECT_NAME    = STARLINK-35749
OBJECT_ID      = 2025-283B
CENTER_NAME    = EARTH
REF_FRAME      = TEME
TIME_SYSTEM    = UTC
MEAN_ELEMENT_THEORY = SGP/SGP4

EPOCH          = 2025-12-28T14:00:01.999872
MEAN_MOTION    = 15.49332461
ECCENTRICITY   = .00014223
INCLINATION    = 53.1595
RA_OF_ASC_NODE = 355.3902
ARG_OF_PERICENTER = 80.9075
MEAN_ANOMALY   = 300.7601

EPHEMERIS_TYPE = 0
CLASSIFICATION_TYPE = U
NORAD_CAT_ID   = 66879
ELEMENT_SET_NO = 999
REV_AT_EPOCH   = 497
BSTAR          = -.14233117E-2
MEAN_MOTION_DOT = -.7888E-3
MEAN_MOTION_DDOT = 0

CCSDS_OMM_VERS = 2.0
CREATION_DATE  = 
ORIGINATOR     = 

OBJECT_NAME    = STARLINK-35844
OBJECT_ID      = 2025-283C
CENTER_NAME    = EARTH
REF_FRAME      = TEME
TIME_SYSTEM    = UTC
MEAN_ELEMENT_THEORY = SGP/SGP4

EPOCH          = 2025-12-28T14:00:01.999872
MEAN_MOTION    = 15.49327314
ECCENTRICITY   = .00019859
INCLINATION    = 53.1598
RA_OF_ASC_NODE = 355.3947
ARG_OF_PERICENTER = 84.7731
MEAN_ANOMALY   = 294.9356

EPHEMERIS_TYPE = 0
CLASSIFICATION_TYPE = U
NORAD_CAT_ID   = 66880
ELEMENT_SET_NO = 999
REV_AT_EPOCH   = 497
BSTAR          = -.54210136E-3
MEAN_MOTION_DOT = -.30502E-3
MEAN_MOTION_DDOT = 0

